{
  "type": "FeatureCollection",
  "features": [
    {
      "type": "Feature",
      "properties": {
        "norad_id": 35015,
        "name": "COSMOS 2251 DEB",
        "group": "cosmos-2251-debris",
        "lat": -19.057986018267282,
        "lon": 35.62516557925581,
        "alt_km": 770.1235747091096,
        "timestamp": "2025-12-25T22:42:17.408869+00:00",
        "meta_object_name": "COSMOS 2251 DEB",
        "meta_object_id": "1993-036AGC",
        "meta_epoch": "2025-12-24T20:59:07.900800",
        "meta_mean_motion": 14.46938139,
        "meta_eccentricity": 0.0074531,
        "meta_inclination": 73.9465,
        "meta_ra_of_asc_node": 211.9291,
        "meta_arg_of_pericenter": 77.5315,
        "meta_mean_anomaly": 301.6184,
        "meta_ephemeris_type": 0,
        "meta_classification_type": "U",
        "meta_norad_cat_id": 35015,
        "meta_element_set_no": 999,
        "meta_rev_at_epoch": 65616,
        "meta_bstar": 0.00073268,
        "meta_mean_motion_dot": 2.728e-05,
        "meta_mean_motion_ddot": 0,
        "tle_line1": "1 35015U 93036AGC 25358.87439700  .00002728  00000+0  73268-3 0  9993",
        "tle_line2": "2 35015  73.9465 211.9291 0074531  77.5315 301.6184 14.46938139656168"
      },
      "geometry": {
        "type": "Point",
        "coordinates": [
          35.62516557925581,
          -19.057986018267282
        ]
      }
    },
    {
      "type": "Feature",
      "properties": {
        "norad_id": 35016,
        "name": "COSMOS 2251 DEB",
        "group": "cosmos-2251-debris",
        "lat": 17.568684859429666,
        "lon": -84.70812124112699,
        "alt_km": 853.9122444400919,
        "timestamp": "2025-12-25T22:42:17.408880+00:00",
        "meta_object_name": "COSMOS 2251 DEB",
        "meta_object_id": "1993-036AGD",
        "meta_epoch": "2025-12-21T05:33:15.838848",
        "meta_mean_motion": 14.35075882,
        "meta_eccentricity": 0.01140745,
        "meta_inclination": 73.9302,
        "meta_ra_of_asc_node": 278.7521,
        "meta_arg_of_pericenter": 193.9283,
        "meta_mean_anomaly": 317.5381,
        "meta_ephemeris_type": 0,
        "meta_classification_type": "U",
        "meta_norad_cat_id": 35016,
        "meta_element_set_no": 999,
        "meta_rev_at_epoch": 86904,
        "meta_bstar": 0.00026149228,
        "meta_mean_motion_dot": 7.75e-06,
        "meta_mean_motion_ddot": 0,
        "tle_line1": "1 35016U 93036AGD 25355.23143332  .00000775  00000+0  26149-3 0  9990",
        "tle_line2": "2 35016  73.9302 278.7521 0114074 193.9283 317.5381 14.35075882869043"
      },
      "geometry": {
        "type": "Point",
        "coordinates": [
          -84.70812124112699,
          17.568684859429666
        ]
      }
    },
    {
      "type": "Feature",
      "properties": {
        "norad_id": 35018,
        "name": "COSMOS 2251 DEB",
        "group": "cosmos-2251-debris",
        "lat": 43.94814203089267,
        "lon": -107.8471666622877,
        "alt_km": 1196.8466109419278,
        "timestamp": "2025-12-25T22:42:17.408890+00:00",
        "meta_object_name": "COSMOS 2251 DEB",
        "meta_object_id": "1993-036AGF",
        "meta_epoch": "2025-12-24T16:12:38.101536",
        "meta_mean_motion": 13.67138502,
        "meta_eccentricity": 0.03490652,
        "meta_inclination": 73.9764,
        "meta_ra_of_asc_node": 90.3261,
        "meta_arg_of_pericenter": 356.917,
        "meta_mean_anomaly": 2.9788,
        "meta_ephemeris_type": 0,
        "meta_classification_type": "U",
        "meta_norad_cat_id": 35018,
        "meta_element_set_no": 999,
        "meta_rev_at_epoch": 83349,
        "meta_bstar": 0.00085132295,
        "meta_mean_motion_dot": 1.064e-05,
        "meta_mean_motion_ddot": 0,
        "tle_line1": "1 35018U 93036AGF 25358.67544099  .00001064  00000+0  85132-3 0  9997",
        "tle_line2": "2 35018  73.9764  90.3261 0349065 356.9170   2.9788 13.67138502833491"
      },
      "geometry": {
        "type": "Point",
        "coordinates": [
          -107.8471666622877,
          43.94814203089267
        ]
      }
    },
    {
      "type": "Feature",
      "properties": {
        "norad_id": 35020,
        "name": "COSMOS 2251 DEB",
        "group": "cosmos-2251-debris",
        "lat": -7.065734334133786,
        "lon": 171.6158395339236,
        "alt_km": 663.0794442541601,
        "timestamp": "2025-12-25T22:42:17.408900+00:00",
        "meta_object_name": "COSMOS 2251 DEB",
        "meta_object_id": "1993-036AGH",
        "meta_epoch": "2025-12-23T11:39:00.022752",
        "meta_mean_motion": 14.62820598,
        "meta_eccentricity": 0.00912637,
        "meta_inclination": 74.045,
        "meta_ra_of_asc_node": 178.3606,
        "meta_arg_of_pericenter": 289.9711,
        "meta_mean_anomaly": 69.1644,
        "meta_ephemeris_type": 0,
        "meta_classification_type": "U",
        "meta_norad_cat_id": 35020,
        "meta_element_set_no": 999,
        "meta_rev_at_epoch": 88395,
        "meta_bstar": 0.00013387504,
        "meta_mean_motion_dot": 6.91e-06,
        "meta_mean_motion_ddot": 0,
        "tle_line1": "1 35020U 93036AGH 25357.48541693  .00000691  00000+0  13388-3 0  9994",
        "tle_line2": "2 35020  74.0450 178.3606 0091263 289.9711  69.1644 14.62820598883959"
      },
      "geometry": {
        "type": "Point",
        "coordinates": [
          171.6158395339236,
          -7.065734334133786
        ]
      }
    },
    {
      "type": "Feature",
      "properties": {
        "norad_id": 35022,
        "name": "COSMOS 2251 DEB",
        "group": "cosmos-2251-debris",
        "lat": -46.89492640436143,
        "lon": -81.14266902645062,
        "alt_km": 729.3842714594812,
        "timestamp": "2025-12-25T22:42:17.408911+00:00",
        "meta_object_name": "COSMOS 2251 DEB",
        "meta_object_id": "1993-036AGK",
        "meta_epoch": "2025-12-25T13:04:16.912416",
        "meta_mean_motion": 14.60885818,
        "meta_eccentricity": 0.0046189,
        "meta_inclination": 74.0261,
        "meta_ra_of_asc_node": 297.4455,
        "meta_arg_of_pericenter": 133.747,
        "meta_mean_anomaly": 226.7535,
        "meta_ephemeris_type": 0,
        "meta_classification_type": "U",
        "meta_norad_cat_id": 35022,
        "meta_element_set_no": 999,
        "meta_rev_at_epoch": 59330,
        "meta_bstar": 0.00049139,
        "meta_mean_motion_dot": 2.411e-05,
        "meta_mean_motion_ddot": 0,
        "tle_line1": "1 35022U 93036AGK 25359.54464019  .00002411  00000+0  49139-3 0  9996",
        "tle_line2": "2 35022  74.0261 297.4455 0046189 133.7470 226.7535 14.60885818593302"
      },
      "geometry": {
        "type": "Point",
        "coordinates": [
          -81.14266902645062,
          -46.89492640436143
        ]
      }
    },
    {
      "type": "Feature",
      "properties": {
        "norad_id": 35023,
        "name": "COSMOS 2251 DEB",
        "group": "cosmos-2251-debris",
        "lat": -37.04321755750637,
        "lon": 173.46844505278747,
        "alt_km": 574.9264242349336,
        "timestamp": "2025-12-25T22:42:17.408921+00:00",
        "meta_object_name": "COSMOS 2251 DEB",
        "meta_object_id": "1993-036AGL",
        "meta_epoch": "2025-12-25T17:01:33.868128",
        "meta_mean_motion": 14.95489352,
        "meta_eccentricity": 0.003351,
        "meta_inclination": 74.0368,
        "meta_ra_of_asc_node": 186.4223,
        "meta_arg_of_pericenter": 262.485,
        "meta_mean_anomaly": 225.1411,
        "meta_ephemeris_type": 0,
        "meta_classification_type": "U",
        "meta_norad_cat_id": 35023,
        "meta_element_set_no": 999,
        "meta_rev_at_epoch": 88473,
        "meta_bstar": 0.0015881,
        "meta_mean_motion_dot": 0.00017791,
        "meta_mean_motion_ddot": 0,
        "tle_line1": "1 35023U 93036AGL 25359.70941977  .00017791  00000+0  15881-2 0  9991",
        "tle_line2": "2 35023  74.0368 186.4223 0033510 262.4850 225.1411 14.95489352884734"
      },
      "geometry": {
        "type": "Point",
        "coordinates": [
          173.46844505278747,
          -37.04321755750637
        ]
      }
    },
    {
      "type": "Feature",
      "properties": {
        "norad_id": 35025,
        "name": "COSMOS 2251 DEB",
        "group": "cosmos-2251-debris",
        "lat": 43.30924376825071,
        "lon": 52.81178576094501,
        "alt_km": 656.694917755749,
        "timestamp": "2025-12-25T22:42:17.408931+00:00",
        "meta_object_name": "COSMOS 2251 DEB",
        "meta_object_id": "1993-036AGN",
        "meta_epoch": "2025-12-25T12:43:05.392128",
        "meta_mean_motion": 14.7277334,
        "meta_eccentricity": 0.0085734,
        "meta_inclination": 73.9378,
        "meta_ra_of_asc_node": 37.8677,
        "meta_arg_of_pericenter": 308.0127,
        "meta_mean_anomaly": 51.3326,
        "meta_ephemeris_type": 0,
        "meta_classification_type": "U",
        "meta_norad_cat_id": 35025,
        "meta_element_set_no": 999,
        "meta_rev_at_epoch": 88831,
        "meta_bstar": 0.00045426,
        "meta_mean_motion_dot": 3.041e-05,
        "meta_mean_motion_ddot": 0,
        "tle_line1": "1 35025U 93036AGN 25359.52992352  .00003041  00000+0  45426-3 0  9998",
        "tle_line2": "2 35025  73.9378  37.8677 0085734 308.0127  51.3326 14.72773340888316"
      },
      "geometry": {
        "type": "Point",
        "coordinates": [
          52.81178576094501,
          43.30924376825071
        ]
      }
    }
  ]
}